[
  {
    "idProduct": 1,
    "title": "title1",
    "size": 100,
    "maxGuests": 10,
    "petsAuthorized": false,
    "dailyrate": 1000,
    "address": "add1",
    "addressComplement": "",
    "zipCode": 75001,
    "evaluations": []
  },
  {
    "idProduct": 2,
    "title": "title2",
    "size": 120,
    "maxGuests": 12,
    "petsAuthorized": false,
    "dailyrate": 1400,
    "address": "add2",
    "addressComplement": "",
    "zipCode": 75002,
    "evaluations": []
  },
  {
    "idProduct": 3,
    "title": "title3",
    "size": 150,
    "maxGuests": 12,
    "petsAuthorized": false,
    "dailyrate": 2000,
    "address": "add3",
    "addressComplement": "",
    "zipCode": 75002,
    "evaluations": []
  },
  {
    "idProduct": 4,
    "title": "title1",
    "size": 100,
    "maxGuests": 10,
    "petsAuthorized": false,
    "dailyrate": 1000,
    "address": "add1",
    "addressComplement": "",
    "zipCode": 75001,
    "evaluations": []
  },
  {
    "idProduct": 5,
    "title": "title2",
    "size": 120,
    "maxGuests": 12,
    "petsAuthorized": false,
    "dailyrate": 1400,
    "address": "add2",
    "addressComplement": "",
    "zipCode": 75002,
    "evaluations": []
  },
  {
    "idProduct": 6,
    "title": "title3",
    "size": 150,
    "maxGuests": 12,
    "petsAuthorized": false,
    "dailyrate": 2000,
    "address": "add3",
    "addressComplement": "",
    "zipCode": 75002,
    "evaluations": []
  },
  {
    "idProduct": 7,
    "title": "title1",
    "size": 100,
    "maxGuests": 10,
    "petsAuthorized": false,
    "dailyrate": 1000,
    "address": "add1",
    "addressComplement": "",
    "zipCode": 75001,
    "evaluations": []
  },
  {
    "idProduct": 8,
    "title": "title2",
    "size": 120,
    "maxGuests": 12,
    "petsAuthorized": false,
    "dailyrate": 1400,
    "address": "add2",
    "addressComplement": "",
    "zipCode": 75002,
    "evaluations": []
  },
  {
    "idProduct": 9,
    "title": "title3",
    "size": 150,
    "maxGuests": 12,
    "petsAuthorized": false,
    "dailyrate": 2000,
    "address": "add3",
    "addressComplement": "",
    "zipCode": 75002,
    "evaluations": []
  },
  {
    "idProduct": 10,
    "title": "title1",
    "size": 100,
    "maxGuests": 10,
    "petsAuthorized": false,
    "dailyrate": 1000,
    "address": "add1",
    "addressComplement": "",
    "zipCode": 75001,
    "evaluations": []
  },
  {
    "idProduct": 11,
    "title": "title2",
    "size": 120,
    "maxGuests": 12,
    "petsAuthorized": false,
    "dailyrate": 1400,
    "address": "add2",
    "addressComplement": "",
    "zipCode": 75002,
    "evaluations": []
  },
  {
    "idProduct": 12,
    "title": "title3",
    "size": 150,
    "maxGuests": 12,
    "petsAuthorized": false,
    "dailyrate": 2000,
    "address": "add3",
    "addressComplement": "",
    "zipCode": 75002,
    "evaluations": []
  },
  {
    "idProduct": 13,
    "title": "title1",
    "size": 100,
    "maxGuests": 10,
    "petsAuthorized": false,
    "dailyrate": 1000,
    "address": "add1",
    "addressComplement": "",
    "zipCode": 75001,
    "evaluations": []
  },
  {
    "idProduct": 14,
    "title": "title2",
    "size": 120,
    "maxGuests": 12,
    "petsAuthorized": false,
    "dailyrate": 1400,
    "address": "add2",
    "addressComplement": "",
    "zipCode": 75002,
    "evaluations": []
  },
  {
    "idProduct": 15,
    "title": "title3",
    "size": 150,
    "maxGuests": 12,
    "petsAuthorized": false,
    "dailyrate": 2000,
    "address": "add3",
    "addressComplement": "",
    "zipCode": 75002,
    "evaluations": []
  },
  {
    "idProduct": 16,
    "title": "title1",
    "size": 100,
    "maxGuests": 10,
    "petsAuthorized": false,
    "dailyrate": 1000,
    "address": "add1",
    "addressComplement": "",
    "zipCode": 75001,
    "evaluations": []
  },
  {
    "idProduct": 17,
    "title": "title2",
    "size": 120,
    "maxGuests": 12,
    "petsAuthorized": false,
    "dailyrate": 1400,
    "address": "add2",
    "addressComplement": "",
    "zipCode": 75002,
    "evaluations": []
  },
  {
    "idProduct": 18,
    "title": "title3",
    "size": 150,
    "maxGuests": 12,
    "petsAuthorized": false,
    "dailyrate": 2000,
    "address": "add3",
    "addressComplement": "",
    "zipCode": 75002,
    "evaluations": []
  },
  {
    "idProduct": 19,
    "title": "title1",
    "size": 100,
    "maxGuests": 10,
    "petsAuthorized": false,
    "dailyrate": 1000,
    "address": "add1",
    "addressComplement": "",
    "zipCode": 75001,
    "evaluations": []
  },
  {
    "idProduct": 20,
    "title": "title2",
    "size": 120,
    "maxGuests": 12,
    "petsAuthorized": false,
    "dailyrate": 1400,
    "address": "add2",
    "addressComplement": "",
    "zipCode": 75002,
    "evaluations": []
  },
  {
    "idProduct": 21,
    "title": "title3",
    "size": 150,
    "maxGuests": 12,
    "petsAuthorized": false,
    "dailyrate": 2000,
    "address": "add3",
    "addressComplement": "",
    "zipCode": 75002,
    "evaluations": []
  },
  {
    "idProduct": 22,
    "title": "title1",
    "size": 100,
    "maxGuests": 10,
    "petsAuthorized": false,
    "dailyrate": 1000,
    "address": "add1",
    "addressComplement": "",
    "zipCode": 75001,
    "evaluations": []
  },
  {
    "idProduct": 23,
    "title": "title2",
    "size": 120,
    "maxGuests": 12,
    "petsAuthorized": false,
    "dailyrate": 1400,
    "address": "add2",
    "addressComplement": "",
    "zipCode": 75002,
    "evaluations": []
  },
  {
    "idProduct": 24,
    "title": "title3",
    "size": 150,
    "maxGuests": 12,
    "petsAuthorized": false,
    "dailyrate": 2000,
    "address": "add3",
    "addressComplement": "",
    "zipCode": 75002,
    "evaluations": []
  },
  {
    "idProduct": 25,
    "title": "title1",
    "size": 100,
    "maxGuests": 10,
    "petsAuthorized": false,
    "dailyrate": 1000,
    "address": "add1",
    "addressComplement": "",
    "zipCode": 75001,
    "evaluations": []
  },
  {
    "idProduct": 26,
    "title": "title2",
    "size": 120,
    "maxGuests": 12,
    "petsAuthorized": false,
    "dailyrate": 1400,
    "address": "add2",
    "addressComplement": "",
    "zipCode": 75002,
    "evaluations": []
  },
  {
    "idProduct": 27,
    "title": "title3",
    "size": 150,
    "maxGuests": 12,
    "petsAuthorized": false,
    "dailyrate": 2000,
    "address": "add3",
    "addressComplement": "",
    "zipCode": 75002,
    "evaluations": []
  },
  {
    "idProduct": 28,
    "title": "title1",
    "size": 100,
    "maxGuests": 10,
    "petsAuthorized": false,
    "dailyrate": 1000,
    "address": "add1",
    "addressComplement": "",
    "zipCode": 75001,
    "evaluations": []
  },
  {
    "idProduct": 29,
    "title": "title2",
    "size": 120,
    "maxGuests": 12,
    "petsAuthorized": false,
    "dailyrate": 1400,
    "address": "add2",
    "addressComplement": "",
    "zipCode": 75002,
    "evaluations": []
  },
  {
    "idProduct": 30,
    "title": "title3",
    "size": 150,
    "maxGuests": 12,
    "petsAuthorized": false,
    "dailyrate": 2000,
    "address": "add3",
    "addressComplement": "",
    "zipCode": 75002,
    "evaluations": []
  }
]
