[
  {
    "max_guests" : 7,
    "daily_rate" : 1130.0,
    "address_complement" : "7ème étage 2ème porte",
    "size" : 120,
    "title" : "Appartement lumineux face au marché bio de Convention",
    "id_product" : 1,
    "pets_authorized" : false,
    "address" : "234 rue de la Convention",
    "zip_code" : "75015"
  },
  {
    "max_guests" : 4,
    "daily_rate" : 1625.0,
    "address_complement" : "2ème étage",
    "size" : 240,
    "title" : "Loft moderne face aux Jardins du Luxembourg à Saint Germain des Prés.",
    "id_product" : 9,
    "pets_authorized" : false,
    "address" : "71, rue Bonaparte",
    "zip_code" : "75006"
  },
  {
    "max_guests" : 6,
    "daily_rate" : 1380.0,
    "address_complement" : "3ème étage droite",
    "size" : 190,
    "title" : "Spacieux logement face au Palais Garnier",
    "id_product" : 20,
    "pets_authorized" : false,
    "address" : "6, rue Halévy",
    "zip_code" : "75009"
  },
  {
    "max_guests" : 4,
    "daily_rate" : 1125.0,
    "address_complement" : "5ème étage, porte bleu zébrée de jaune",
    "size" : 165,
    "title" : "Appartement cosy près des Grands Boulevards.",
    "id_product" : 28,
    "pets_authorized" : false,
    "address" : "9, rue Sainte-Cécile",
    "zip_code" : "75009"
  },
  {
    "max_guests" : 7,
    "daily_rate" : 1250.0,
    "address_complement" : "5ème étage",
    "size" : 110,
    "title" : "Loft chic en plein coeur de la rue Saint Honoré",
    "id_product" : 2,
    "pets_authorized" : false,
    "address" : "213 bis rue Saint Honoré",
    "zip_code" : "75001"
  },
  {
    "max_guests" : 4,
    "daily_rate" : 1210.0,
    "address_complement" : "3eme étage",
    "size" : 145,
    "title" : "Bel appartement idéalement situé proche de la Place de la Concorde. Magnifique quartier parisien",
    "id_product" : 11,
    "pets_authorized" : false,
    "address" : "7, rue de Mondovi",
    "zip_code" : "75001"
  },
  {
    "max_guests" : 2,
    "daily_rate" : 1320.0,
    "address_complement" : "2ème étage, porte rose",
    "size" : 170,
    "title" : "Superbe garçonnière sur la Concorde.",
    "id_product" : 18,
    "pets_authorized" : false,
    "address" : "11, Rue Royale",
    "zip_code" : "75008"
  },
  {
    "max_guests" : 3,
    "daily_rate" : 1250.0,
    "address_complement" : "Porte jaune",
    "size" : 130,
    "title" : "Appartement style 'antre barbare' à Arts et Métiers",
    "id_product" : 19,
    "pets_authorized" : false,
    "address" : " 107, rue Beaubourg",
    "zip_code" : "75003"
  },
  {
    "max_guests" : 5,
    "daily_rate" : 1260.0,
    "address_complement" : "4ème étage, face à l’ascenseur",
    "size" : 180,
    "title" : "Appartement ancien entièrement rénové rue des Dames.",
    "id_product" : 26,
    "pets_authorized" : false,
    "address" : "18, rue de la Tour des Dames",
    "zip_code" : "75009"
  },
  {
    "max_guests" : 4,
    "daily_rate" : 1540.0,
    "address_complement" : "4ème étage",
    "size" : 115,
    "title" : "Bel appartement situé dans un quartier très calme résidentiel. Proche Bois de Boulogne.",
    "id_product" : 13,
    "pets_authorized" : false,
    "address" : "13, rue des Halles",
    "zip_code" : "75001"
  },
  {
    "max_guests" : 6,
    "daily_rate" : 1240.0,
    "address_complement" : "5ème étage gauche",
    "size" : 200,
    "title" : "Splendide penthouse à côté du Panthéon",
    "id_product" : 21,
    "pets_authorized" : false,
    "address" : "3, rue Soufflot",
    "zip_code" : "75005"
  },
  {
    "max_guests" : 3,
    "daily_rate" : 920.0,
    "address_complement" : "1er étage, 1ère porte à droite",
    "size" : 100,
    "title" : "Bel appartement lumineux donnant sur le Jardin des Plantes.",
    "id_product" : 29,
    "pets_authorized" : false,
    "address" : "16, rue Cuvier",
    "zip_code" : "75005"
  },
  {
    "max_guests" : 7,
    "daily_rate" : 1025.0,
    "address_complement" : "1er étage",
    "size" : 200,
    "title" : "Loft totalement rénové place du Trocadéro",
    "id_product" : 4,
    "pets_authorized" : false,
    "address" : "2, Place du Trocadéro",
    "zip_code" : "75016"
  },
  {
    "max_guests" : 4,
    "daily_rate" : 1780.0,
    "address_complement" : "3ème étage",
    "size" : 115,
    "title" : "Bel appartement situé dans le 16e face au Musée du Vin. Vue sur Tour Eiffel.",
    "id_product" : 12,
    "pets_authorized" : false,
    "address" : "11 rue Raynouard",
    "zip_code" : "75016"
  },
  {
    "max_guests" : 4,
    "daily_rate" : 1125.0,
    "address_complement" : "2ème étage, porte 201",
    "size" : 150,
    "title" : "Bel appartement sur la Place de la Bastille",
    "id_product" : 17,
    "pets_authorized" : false,
    "address" : "4, Boulevard Richard Lenoir",
    "zip_code" : "75011"
  },
  {
    "max_guests" : 4,
    "daily_rate" : 1320.0,
    "address_complement" : "5ème étage, porte 501",
    "size" : 150,
    "title" : "Beau loft près du Parc Monceau",
    "id_product" : 25,
    "pets_authorized" : false,
    "address" : " 47, rue de Monceau",
    "zip_code" : "75008"
  },
  {
    "max_guests" : 6,
    "daily_rate" : 1345.0,
    "address_complement" : "8ème étage ascenseur A",
    "size" : 150,
    "title" : "Loft atelier face au jardin des Tuileries",
    "id_product" : 3,
    "pets_authorized" : false,
    "address" : "64, Terrasse des Feuillants",
    "zip_code" : "75001"
  },
  {
    "max_guests" : 6,
    "daily_rate" : 1535.0,
    "address_complement" : "2ème étage",
    "size" : 210,
    "title" : "Magnifique appartement situé à deux pas de la Place de la Madeleine.",
    "id_product" : 10,
    "pets_authorized" : false,
    "address" : "43 rue Cambon",
    "zip_code" : "75001"
  },
  {
    "max_guests" : 4,
    "daily_rate" : 950.0,
    "address_complement" : "2ème étage, porte gauche",
    "size" : 160,
    "title" : "Charmant appartement au pied de la Tour Eiffel.",
    "id_product" : 27,
    "pets_authorized" : false,
    "address" : "27, avenue de Suffren",
    "zip_code" : "75007"
  },
  {
    "max_guests" : 5,
    "daily_rate" : 1175.0,
    "address_complement" : "12ème étage au fond du couloir",
    "size" : 220,
    "title" : "Appartement de luxe face au Palais Brongniart",
    "id_product" : 6,
    "pets_authorized" : false,
    "address" : "318, rue Vivienne",
    "zip_code" : "75002"
  },
  {
    "max_guests" : 4,
    "daily_rate" : 1325.0,
    "address_complement" : "4ème étage au fond de la cour",
    "size" : 135,
    "title" : "Spacieux appartement en plein coeur de Châtelet. Ambiance festive de quartier.",
    "id_product" : 14,
    "pets_authorized" : false,
    "address" : "101 Avenue Mozart",
    "zip_code" : "75016"
  },
  {
    "max_guests" : 4,
    "daily_rate" : 1450.0,
    "address_complement" : "3ème étage, porte 320",
    "size" : 160,
    "title" : "Appartement design rue Mouffetard",
    "id_product" : 22,
    "pets_authorized" : false,
    "address" : "112, rue Mouffetard",
    "zip_code" : "75005"
  },
  {
    "max_guests" : 1,
    "daily_rate" : 450.0,
    "address_complement" : "Près des toilettes",
    "size" : 9,
    "title" : "Petit palais idéalement placé sur la pelouse de la Villette.",
    "id_product" : 30,
    "pets_authorized" : true,
    "address" : "La Villette",
    "zip_code" : "75019"
  },
  {
    "max_guests" : 8,
    "daily_rate" : 1475.0,
    "address_complement" : "4ème étage",
    "size" : 250,
    "title" : "Loft très spacieux situé à deux pas du Centre Pompidou. Quartier d'artistes branchés.",
    "id_product" : 7,
    "pets_authorized" : false,
    "address" : "77, rue Beaubourg",
    "zip_code" : "75003"
  },
  {
    "max_guests" : 3,
    "daily_rate" : 1175.0,
    "address_complement" : "4ème étage porte gauche",
    "size" : 200,
    "title" : "Ancien appartement plein de charme dans le 6e pour profiter des boutiques de luxe.",
    "id_product" : 15,
    "pets_authorized" : false,
    "address" : "43 Boulevard Raspail",
    "zip_code" : "75006"
  },
  {
    "max_guests" : 3,
    "daily_rate" : 1120.0,
    "address_complement" : "1er étage gauche",
    "size" : 120,
    "title" : "Appartement chic rue de la Gaité.",
    "id_product" : 23,
    "pets_authorized" : false,
    "address" : " 20, rue de la Gaité",
    "zip_code" : "75014"
  },
  {
    "max_guests" : 7,
    "daily_rate" : 1325.0,
    "address_complement" : "1er étage à droite",
    "size" : 90,
    "title" : "Appartement en plein coeur de Montmartre face aux vignobles",
    "id_product" : 5,
    "pets_authorized" : false,
    "address" : "15 rue Saint Vincent",
    "zip_code" : "75018"
  },
  {
  "max_guests" : 8,
  "daily_rate" : 1525.0,
  "address_complement" : "2ème étage",
  "size" : 210,
  "title" : "Appartement chaleureux situé à 3 min à pieds de la Place des Vosges. Très calme.",
  "id_product" : 8,
  "pets_authorized" : false,
  "address" : "3, rue Saint-Gilles",
  "zip_code" : "75003"
  },
  {
    "max_guests" : 5,
    "daily_rate" : 1270.0,
    "address_complement" : "5ème étage, porte gauche",
    "size" : 180,
    "title" : "Appartement résolument bobo à Saint-Germain.",
    "id_product" : 16,
    "pets_authorized" : false,
    "address" : "175, Boulevard Saint-Germain",
    "zip_code" : "75006"
  },
  {
    "max_guests" : 6,
    "daily_rate" : 1420.0,
    "address_complement" : "1er étage",
    "size" : 210,
    "title" : "Duplex moderne et design rue Montaigne.",
    "id_product" : 24,
    "pets_authorized" : false,
    "address" : "52, avenue Montaigne",
    "zip_code" : "75008"
    }
]
